{
    "links": {
        "self": "http://www.neowsapp.com/rest/v1/neo/3512696?api_key=iIulBulltgU6a56xZRHN4H3l9WmuAYTsLGpBGhQ2"
    },
    "id": "3512696",
    "neo_reference_id": "3512696",
    "name": "(2010 FP9)",
    "designation": "2010 FP9",
    "nasa_jpl_url": "http://ssd.jpl.nasa.gov/sbdb.cgi?sstr=3512696",
    "absolute_magnitude_h": 23.6,
    "estimated_diameter": {
        "kilometers": {
            "estimated_diameter_min": 0.0506471459,
            "estimated_diameter_max": 0.1132504611
        },
        "meters": {
            "estimated_diameter_min": 50.6471458835,
            "estimated_diameter_max": 113.2504610618
        },
        "miles": {
            "estimated_diameter_min": 0.0314706677,
            "estimated_diameter_max": 0.0703705522
        },
        "feet": {
            "estimated_diameter_min": 166.1651821003,
            "estimated_diameter_max": 371.5566426699
        }
    },
    "is_potentially_hazardous_asteroid": false,
    "close_approach_data": [
        {
            "close_approach_date": "2010-04-01",
            "close_approach_date_full": "2010-Apr-01 00:09",
            "epoch_date_close_approach": 1270080540000,
            "relative_velocity": {
                "kilometers_per_second": "3.4557908144",
                "kilometers_per_hour": "12440.8469318892",
                "miles_per_hour": "7730.2584727619"
            },
            "miss_distance": {
                "astronomical": "0.1740101028",
                "lunar": "67.6899299892",
                "kilometers": "26031540.737361036",
                "miles": "16175249.3579168568"
            },
            "orbiting_body": "Earth"
        }
    ],
    "orbital_data": {
        "orbit_id": "13",
        "orbit_determination_date": "2017-04-06 08:58:03",
        "first_observation_date": "2010-03-20",
        "last_observation_date": "2010-04-18",
        "data_arc_in_days": 29,
        "observations_used": 26,
        "orbit_uncertainty": "7",
        "minimum_orbit_intersection": ".174147",
        "jupiter_tisserand_invariant": "4.381",
        "epoch_osculation": "2459000.5",
        "eccentricity": ".2506076889466677",
        "semi_major_axis": "1.564454868415305",
        "inclination": "6.293461962002492",
        "ascending_node_longitude": "1.82391982500943",
        "orbital_period": "714.7316029075266",
        "perihelion_distance": "1.172390449380382",
        "perihelion_argument": "187.1557112053857",
        "aphelion_distance": "1.956519287450228",
        "perihelion_time": "2458858.376780099377",
        "mean_anomaly": "71.5854160584024",
        "mean_motion": ".5036855772649772",
        "equinox": "J2000",
        "orbit_class": {
            "orbit_class_type": "AMO",
            "orbit_class_description": "Near-Earth asteroid orbits similar to that of 1221 Amor",
            "orbit_class_range": "1.017 AU < q (perihelion) < 1.3 AU"
        }
    },
    "is_sentry_object": false
}